ZACUBE-1 (TSHEPISOSAT)  
1 39417U 13066B   25130.43054978  .00005691  00000+0  49754-3 0  9993
2 39417  97.7782  87.6150 0045441 150.3132 210.0683 14.96359323620403
GOMX-1                  
1 39430U 13066Q   25130.82719036  .00001761  00000+0  28109-3 0  9999
2 39430  97.6870 351.3143 0131288 287.9491  70.7440 14.67531019611042
CUBEBUG-2 (LO-74)       
1 39440U 13066AA  25130.58848555  .00004907  00000+0  50095-3 0  9996
2 39440  97.8481  75.3641 0060485 279.4754  79.9630 14.89729936616977
FUNCUBE-1 (AO-73)       
1 39444U 13066AE  25130.43716494  .00008155  00000+0  61666-3 0  9995
2 39444  97.7802  92.2461 0042630 127.1965 233.3163 15.01877279619069
UWE-3                   
1 39446U 13066AG  25130.50687922  .00003389  00000+0  32592-3 0  9998
2 39446  97.8219  81.6074 0052220 217.4965 142.2607 14.92675377617428
UNISAT-6                
1 40012U 14033C   25130.83461720  .00003057  00000+0  35752-3 0  9999
2 40012  97.7386 287.8651 0046772 313.5708  46.1628 14.85035060586388
DUCHIFAT-1              
1 40021U 14033M   25130.00692420  .00023678  00000+0  88632-3 0  9997
2 40021  98.0964 141.7186 0010893  72.0828 288.1596 15.27255777593656
QB50P1                  
1 40025U 14033R   25130.46237132  .00008154  00000+0  50503-3 0  9994
2 40025  98.0814 111.3951 0011562 147.4989 212.6953 15.10013000592095
LILACSAT-2              
1 40908U 15049K   25130.82227313  .00011934  00000+0  31882-3 0  9991
2 40908  97.5075 150.4629 0007322 264.0756  95.9654 15.38224059533656
FOX-1A (AO-85)          
1 40967U 15058D   25130.48852847  .00002638  00000+0  23896-3 0  9991
2 40967  64.7749  87.5083 0165143 205.1569 154.1434 14.87850606 53593
CAS-2T & KS-1Q          
1 41847U 16066G   25130.80454803  .00000854  00000+0  13213-3 0  9995
2 41847  98.4205 205.5241 0345143 268.5843  87.5794 14.43400117446727
ZHUHAI-1 02 (CAS-4B)    
1 42759U 17034B   25130.46748796  .00062508  00000+0  75715-3 0  9992
2 42759  43.0063 140.8524 0017878  79.6318 280.6560 15.59604220437896
ZHUHAI-1 01 (CAS-4A)    
1 42761U 17034D   25130.71471564  .00063923  00000+0  74282-3 0  9999
2 42761  43.0097 136.8355 0019125  86.0285 274.2765 15.60648582437959
RADFXSAT (FOX-1B)       
1 43017U 17073E   25130.19776739  .00010008  00000+0  51929-3 0  9990
2 43017  97.5286   1.7432 0172720 270.1220  88.0215 15.04263695404647
