[
  {
    "OBJECT_NAME": "ZACUBE-1 (TSHEPISOSAT)",
    "OBJECT_ID": "2013-066B",
    "EPOCH": "2025-05-10T10:19:59.500992",
    "MEAN_MOTION": 14.96359323,
    "ECCENTRICITY": 0.0045441,
    "INCLINATION": 97.7782,
    "RA_OF_ASC_NODE": 87.615,
    "ARG_OF_PERICENTER": 150.3132,
    "MEAN_ANOMALY": 210.0683,
    "EPHEMERIS_TYPE": 0,
    "CLASSIFICATION_TYPE": "U",
    "NORAD_CAT_ID": 39417,
    "ELEMENT_SET_NO": 999,
    "REV_AT_EPOCH": 62040,
    "BSTAR": 0.00049754,
    "MEAN_MOTION_DOT": 5.691e-05,
    "MEAN_MOTION_DDOT": 0
  },
  {
    "OBJECT_NAME": "GOMX-1",
    "OBJECT_ID": "2013-066Q",
    "EPOCH": "2025-05-10T19:51:09.247104",
    "MEAN_MOTION": 14.67531019,
    "ECCENTRICITY": 0.0131288,
    "INCLINATION": 97.687,
    "RA_OF_ASC_NODE": 351.3143,
    "ARG_OF_PERICENTER": 287.9491,
    "MEAN_ANOMALY": 70.744,
    "EPHEMERIS_TYPE": 0,
    "CLASSIFICATION_TYPE": "U",
    "NORAD_CAT_ID": 39430,
    "ELEMENT_SET_NO": 999,
    "REV_AT_EPOCH": 61104,
    "BSTAR": 0.00028109,
    "MEAN_MOTION_DOT": 1.761e-05,
    "MEAN_MOTION_DDOT": 0
  },
  {
    "OBJECT_NAME": "CUBEBUG-2 (LO-74)",
    "OBJECT_ID": "2013-066AA",
    "EPOCH": "2025-05-10T14:07:25.151520",
    "MEAN_MOTION": 14.89729936,
    "ECCENTRICITY": 0.0060485,
    "INCLINATION": 97.8481,
    "RA_OF_ASC_NODE": 75.3641,
    "ARG_OF_PERICENTER": 279.4754,
    "MEAN_ANOMALY": 79.963,
    "EPHEMERIS_TYPE": 0,
    "CLASSIFICATION_TYPE": "U",
    "NORAD_CAT_ID": 39440,
    "ELEMENT_SET_NO": 999,
    "REV_AT_EPOCH": 61697,
    "BSTAR": 0.00050095,
    "MEAN_MOTION_DOT": 4.907e-05,
    "MEAN_MOTION_DDOT": 0
  },
  {
    "OBJECT_NAME": "FUNCUBE-1 (AO-73)",
    "OBJECT_ID": "2013-066AE",
    "EPOCH": "2025-05-10T10:29:31.050816",
    "MEAN_MOTION": 15.01877279,
    "ECCENTRICITY": 0.004263,
    "INCLINATION": 97.7802,
    "RA_OF_ASC_NODE": 92.2461,
    "ARG_OF_PERICENTER": 127.1965,
    "MEAN_ANOMALY": 233.3163,
    "EPHEMERIS_TYPE": 0,
    "CLASSIFICATION_TYPE": "U",
    "NORAD_CAT_ID": 39444,
    "ELEMENT_SET_NO": 999,
    "REV_AT_EPOCH": 61906,
    "BSTAR": 0.00061666,
    "MEAN_MOTION_DOT": 8.155e-05,
    "MEAN_MOTION_DDOT": 0
  },
  {
    "OBJECT_NAME": "UWE-3",
    "OBJECT_ID": "2013-066AG",
    "EPOCH": "2025-05-10T12:09:54.364608",
    "MEAN_MOTION": 14.92675377,
    "ECCENTRICITY": 0.005222,
    "INCLINATION": 97.8219,
    "RA_OF_ASC_NODE": 81.6074,
    "ARG_OF_PERICENTER": 217.4965,
    "MEAN_ANOMALY": 142.2607,
    "EPHEMERIS_TYPE": 0,
    "CLASSIFICATION_TYPE": "U",
    "NORAD_CAT_ID": 39446,
    "ELEMENT_SET_NO": 999,
    "REV_AT_EPOCH": 61742,
    "BSTAR": 0.00032592,
    "MEAN_MOTION_DOT": 3.389e-05,
    "MEAN_MOTION_DDOT": 0
  },
  {
    "OBJECT_NAME": "UNISAT-6",
    "OBJECT_ID": "2014-033C",
    "EPOCH": "2025-05-10T20:01:50.926080",
    "MEAN_MOTION": 14.8503506,
    "ECCENTRICITY": 0.0046772,
    "INCLINATION": 97.7386,
    "RA_OF_ASC_NODE": 287.8651,
    "ARG_OF_PERICENTER": 313.5708,
    "MEAN_ANOMALY": 46.1628,
    "EPHEMERIS_TYPE": 0,
    "CLASSIFICATION_TYPE": "U",
    "NORAD_CAT_ID": 40012,
    "ELEMENT_SET_NO": 999,
    "REV_AT_EPOCH": 58638,
    "BSTAR": 0.00035752,
    "MEAN_MOTION_DOT": 3.057e-05,
    "MEAN_MOTION_DDOT": 0
  },
  {
    "OBJECT_NAME": "DUCHIFAT-1",
    "OBJECT_ID": "2014-033M",
    "EPOCH": "2025-05-10T00:09:58.250880",
    "MEAN_MOTION": 15.27255777,
    "ECCENTRICITY": 0.0010893,
    "INCLINATION": 98.0964,
    "RA_OF_ASC_NODE": 141.7186,
    "ARG_OF_PERICENTER": 72.0828,
    "MEAN_ANOMALY": 288.1596,
    "EPHEMERIS_TYPE": 0,
    "CLASSIFICATION_TYPE": "U",
    "NORAD_CAT_ID": 40021,
    "ELEMENT_SET_NO": 999,
    "REV_AT_EPOCH": 59365,
    "BSTAR": 0.00088632,
    "MEAN_MOTION_DOT": 0.00023678,
    "MEAN_MOTION_DDOT": 0
  },
  {
    "OBJECT_NAME": "QB50P1",
    "OBJECT_ID": "2014-033R",
    "EPOCH": "2025-05-10T11:05:48.882048",
    "MEAN_MOTION": 15.10013,
    "ECCENTRICITY": 0.0011562,
    "INCLINATION": 98.0814,
    "RA_OF_ASC_NODE": 111.3951,
    "ARG_OF_PERICENTER": 147.4989,
    "MEAN_ANOMALY": 212.6953,
    "EPHEMERIS_TYPE": 0,
    "CLASSIFICATION_TYPE": "U",
    "NORAD_CAT_ID": 40025,
    "ELEMENT_SET_NO": 999,
    "REV_AT_EPOCH": 59209,
    "BSTAR": 0.00050503,
    "MEAN_MOTION_DOT": 8.154e-05,
    "MEAN_MOTION_DDOT": 0
  },
  {
    "OBJECT_NAME": "LILACSAT-2",
    "OBJECT_ID": "2015-049K",
    "EPOCH": "2025-05-10T19:44:04.398432",
    "MEAN_MOTION": 15.38224059,
    "ECCENTRICITY": 0.0007322,
    "INCLINATION": 97.5075,
    "RA_OF_ASC_NODE": 150.4629,
    "ARG_OF_PERICENTER": 264.0756,
    "MEAN_ANOMALY": 95.9654,
    "EPHEMERIS_TYPE": 0,
    "CLASSIFICATION_TYPE": "U",
    "NORAD_CAT_ID": 40908,
    "ELEMENT_SET_NO": 999,
    "REV_AT_EPOCH": 53365,
    "BSTAR": 0.00031882,
    "MEAN_MOTION_DOT": 0.00011934,
    "MEAN_MOTION_DDOT": 0
  },
  {
    "OBJECT_NAME": "FOX-1A (AO-85)",
    "OBJECT_ID": "2015-058D",
    "EPOCH": "2025-05-10T11:43:28.859808",
    "MEAN_MOTION": 14.87850606,
    "ECCENTRICITY": 0.0165143,
    "INCLINATION": 64.7749,
    "RA_OF_ASC_NODE": 87.5083,
    "ARG_OF_PERICENTER": 205.1569,
    "MEAN_ANOMALY": 154.1434,
    "EPHEMERIS_TYPE": 0,
    "CLASSIFICATION_TYPE": "U",
    "NORAD_CAT_ID": 40967,
    "ELEMENT_SET_NO": 999,
    "REV_AT_EPOCH": 5359,
    "BSTAR": 0.00023896,
    "MEAN_MOTION_DOT": 2.638e-05,
    "MEAN_MOTION_DDOT": 0
  },
  {
    "OBJECT_NAME": "CAS-2T & KS-1Q",
    "OBJECT_ID": "2016-066G",
    "EPOCH": "2025-05-10T19:18:32.949792",
    "MEAN_MOTION": 14.43400117,
    "ECCENTRICITY": 0.0345143,
    "INCLINATION": 98.4205,
    "RA_OF_ASC_NODE": 205.5241,
    "ARG_OF_PERICENTER": 268.5843,
    "MEAN_ANOMALY": 87.5794,
    "EPHEMERIS_TYPE": 0,
    "CLASSIFICATION_TYPE": "U",
    "NORAD_CAT_ID": 41847,
    "ELEMENT_SET_NO": 999,
    "REV_AT_EPOCH": 44672,
    "BSTAR": 0.00013213,
    "MEAN_MOTION_DOT": 8.54e-06,
    "MEAN_MOTION_DDOT": 0
  },
  {
    "OBJECT_NAME": "ZHUHAI-1 02 (CAS-4B)",
    "OBJECT_ID": "2017-034B",
    "EPOCH": "2025-05-10T11:13:10.959744",
    "MEAN_MOTION": 15.5960422,
    "ECCENTRICITY": 0.0017878,
    "INCLINATION": 43.0063,
    "RA_OF_ASC_NODE": 140.8524,
    "ARG_OF_PERICENTER": 79.6318,
    "MEAN_ANOMALY": 280.656,
    "EPHEMERIS_TYPE": 0,
    "CLASSIFICATION_TYPE": "U",
    "NORAD_CAT_ID": 42759,
    "ELEMENT_SET_NO": 999,
    "REV_AT_EPOCH": 43789,
    "BSTAR": 0.00075715,
    "MEAN_MOTION_DOT": 0.00062508,
    "MEAN_MOTION_DDOT": 0
  },
  {
    "OBJECT_NAME": "ZHUHAI-1 01 (CAS-4A)",
    "OBJECT_ID": "2017-034D",
    "EPOCH": "2025-05-10T17:09:11.431296",
    "MEAN_MOTION": 15.60648582,
    "ECCENTRICITY": 0.0019125,
    "INCLINATION": 43.0097,
    "RA_OF_ASC_NODE": 136.8355,
    "ARG_OF_PERICENTER": 86.0285,
    "MEAN_ANOMALY": 274.2765,
    "EPHEMERIS_TYPE": 0,
    "CLASSIFICATION_TYPE": "U",
    "NORAD_CAT_ID": 42761,
    "ELEMENT_SET_NO": 999,
    "REV_AT_EPOCH": 43795,
    "BSTAR": 0.00074282,
    "MEAN_MOTION_DOT": 0.00063923,
    "MEAN_MOTION_DDOT": 0
  },
  {
    "OBJECT_NAME": "RADFXSAT (FOX-1B)",
    "OBJECT_ID": "2017-073E",
    "EPOCH": "2025-05-10T04:44:47.102496",
    "MEAN_MOTION": 15.04263695,
    "ECCENTRICITY": 0.017272,
    "INCLINATION": 97.5286,
    "RA_OF_ASC_NODE": 1.7432,
    "ARG_OF_PERICENTER": 270.122,
    "MEAN_ANOMALY": 88.0215,
    "EPHEMERIS_TYPE": 0,
    "CLASSIFICATION_TYPE": "U",
    "NORAD_CAT_ID": 43017,
    "ELEMENT_SET_NO": 999,
    "REV_AT_EPOCH": 40464,
    "BSTAR": 0.00051929,
    "MEAN_MOTION_DOT": 0.00010008,
    "MEAN_MOTION_DDOT": 0
  }
]